NORAD_CAT_ID,OBJECT_NAME,OBJECT_TYPE,EPOCH,MEAN_MOTION,ECCENTRICITY,INCLINATION,RA_OF_ASC_NODE,ARG_OF_PERICENTER,MEAN_ANOMALY,BSTAR,MEAN_MOTION_DOT,MEAN_MOTION_DDOT,TLE_LINE0,TLE_LINE1,TLE_LINE2,SEMIMAJOR_AXIS,PERIOD,APOGEE,PERIGEE,DECAYED
56786.0,STARLINK-6341,PAYLOAD,2024-06-02 09:32:51,14.9835214,0.0003238,69.9982,151.5219,271.6664,88.4124,-0.00067648,-8.16e-05,0.0,0 STARLINK-6341,1 56786U 23078V   24154.39782143 -.00008160  00000-0 -67648-3 0  9996,2 56786  69.9982 151.5219 0003238 271.6664  88.4124 14.98352140 56510,6950.124,96.106,574.24,569.739,0.0
56786.0,STARLINK-6341,PAYLOAD,2024-06-03 04:46:29,14.98316062,0.0003093,69.9982,149.5019,267.9742,92.1063,1.0143e-05,2.8e-07,0.0,0 STARLINK-6341,1 56786U 23078V   24155.19895340  .00000028  00000-0  10143-4 0  9991,2 56786  69.9982 149.5019 0003093 267.9742  92.1063 14.98316062 56897,6950.236,96.108,574.251,569.951,0.0
56786.0,STARLINK-6341,PAYLOAD,2024-06-03 09:34:53,14.98317888,0.0003095,69.9983,148.997,268.0692,92.0112,1.641e-05,1.03e-06,0.0,0 STARLINK-6341,1 56786U 23078V   24155.39923385  .00000103  00000-0  16410-4 0  9991,2 56786  69.9983 148.9970 0003095 268.0692  92.0112 14.98317888 56661,6950.23,96.108,574.246,569.944,0.0
56786.0,STARLINK-6341,PAYLOAD,2024-06-03 22:23:58,14.98319036,0.0003103,69.9984,147.6504,268.2011,91.8793,8.5503e-05,9.27e-06,0.0,0 STARLINK-6341,1 56786U 23078V   24155.93331525  .00000927  00000-0  85503-4 0  9993,2 56786  69.9984 147.6504 0003103 268.2011  91.8793 14.98319036 56746,6950.227,96.108,574.248,569.935,0.0
56786.0,STARLINK-6341,PAYLOAD,2024-06-04 09:36:54,14.98323184,0.0003112,69.9984,146.4718,268.5837,91.4965,0.00011539,1.284e-05,0.0,0 STARLINK-6341,1 56786U 23078V   24156.40063473  .00001284  00000-0  11539-3 0  9994,2 56786  69.9984 146.4718 0003112 268.5837  91.4965 14.98323184 57072,6950.214,96.107,574.242,569.916,0.0
56786.0,STARLINK-6341,PAYLOAD,2024-06-04 22:25:59,14.98328865,0.0003137,69.9984,145.1251,269.1608,90.9191,9.9238e-05,1.091e-05,0.0,0 STARLINK-6341,1 56786U 23078V   24156.93471318  .00001091  00000-0  99238-4 0  9992,2 56786  69.9984 145.1251 0003137 269.1608  90.9191 14.98328865 56895,6950.196,96.107,574.242,569.881,0.0
56786.0,STARLINK-6341,PAYLOAD,2024-06-05 09:38:55,14.98333695,0.0003086,69.9986,143.947,268.8549,91.2256,0.00013806,1.555e-05,0.0,0 STARLINK-6341,1 56786U 23078V   24157.40202860  .00001555  00000-0  13806-3 0  9990,2 56786  69.9986 143.9470 0003086 268.8549  91.2256 14.98333695 57220,6950.181,96.107,574.191,569.902,0.0
56786.0,STARLINK-6341,PAYLOAD,2024-06-05 16:03:27,14.983297,0.0003071,69.9987,143.2735,269.4818,90.5989,6.9455e-05,7.36e-06,0.0,0 STARLINK-6341,1 56786U 23078V   24157.66907267  .00000736  00000-0  69455-4 0  9993,2 56786  69.9987 143.2735 0003071 269.4818  90.5989 14.98329700 57001,6950.194,96.107,574.193,569.924,0.0
56786.0,STARLINK-6341,PAYLOAD,2024-06-06 04:52:32,14.98327486,0.0003012,69.9989,141.9273,268.6513,91.4301,-1.5311e-05,-2.76e-06,0.0,0 STARLINK-6341,1 56786U 23078V   24158.20315665 -.00000276  00000-0 -15311-4 0  9992,2 56786  69.9989 141.9273 0003012 268.6513  91.4301 14.98327486 57347,6950.201,96.107,574.159,569.972,0.0
56786.0,STARLINK-6341,PAYLOAD,2024-06-06 08:04:48,14.98328314,0.0002996,69.999,141.5906,268.848,91.2335,-6.3141e-06,-1.68e-06,0.0,0 STARLINK-6341,1 56786U 23078V   24158.33667598 -.00000168  00000-0 -63141-5 0  9996,2 56786  69.9990 141.5906 0002996 268.8480  91.2335 14.98328314 57103,6950.198,96.107,574.145,569.981,0.0
56786.0,STARLINK-6341,PAYLOAD,2024-06-07 08:06:49,14.98333439,0.000292,69.9993,139.0664,269.0604,91.0221,-3.9327e-05,-5.62e-06,0.0,0 STARLINK-6341,1 56786U 23078V   24159.33807267 -.00000562  00000-0 -39327-4 0  9992,2 56786  69.9993 139.0664 0002920 269.0604  91.0221 14.98333439 57518,6950.182,96.107,574.077,570.018,0.0
56786.0,STARLINK-6341,PAYLOAD,2024-06-07 16:07:29,14.98334974,0.0003021,69.999,138.2245,270.6382,89.4431,-4.8073e-05,-6.67e-06,0.0,0 STARLINK-6341,1 56786U 23078V   24159.67187103 -.00000667  00000-0 -48073-4 0  9993,2 56786  69.9990 138.2245 0003021 270.6382  89.4431 14.98334974 57301,6950.178,96.107,574.142,569.943,0.0
56786.0,STARLINK-6341,PAYLOAD,2024-06-08 08:08:49,14.98334315,0.0003019,69.9989,136.5412,270.3844,89.6969,7.7219e-05,8.29e-06,0.0,0 STARLINK-6341,1 56786U 23078V   24160.33946742  .00000829  00000-0  77219-4 0  9992,2 56786  69.9989 136.5412 0003019 270.3844  89.6969 14.98334315 57669,6950.18,96.107,574.143,569.946,0.0
56786.0,STARLINK-6341,PAYLOAD,2024-06-08 16:09:30,14.98328059,0.0002919,69.9992,135.6989,270.6855,89.397,-8.2443e-06,-1.91e-06,0.0,0 STARLINK-6341,1 56786U 23078V   24160.67327354 -.00000191  00000-0 -82443-5 0  9991,2 56786  69.9992 135.6989 0002919 270.6855  89.3970 14.98328059 57718,6950.199,96.107,574.093,570.035,0.0
56786.0,STARLINK-6341,PAYLOAD,2024-06-08 22:34:03,14.98327617,0.0002914,69.9991,135.0257,270.5929,89.4896,-1.0992e-05,-2.24e-06,0.0,0 STARLINK-6341,1 56786U 23078V   24160.94031409 -.00000224  00000-0 -10992-4 0  9990,2 56786  69.9991 135.0257 0002914 270.5929  89.4896 14.98327617 57497,6950.2,96.107,574.091,570.04,0.0
56786.0,STARLINK-6341,PAYLOAD,2024-06-09 08:10:51,14.9832758,0.0002964,69.9991,134.016,270.8312,89.2507,-3.6943e-05,-5.34e-06,0.0,0 STARLINK-6341,1 56786U 23078V   24161.34087546 -.00000534  00000-0 -36943-4 0  9996,2 56786  69.9991 134.0160 0002964 270.8312  89.2507 14.98327580 57556,6950.2,96.107,574.125,570.005,0.0
56786.0,STARLINK-6341,PAYLOAD,2024-06-09 20:59:55,14.98323115,0.0003041,69.9991,132.6695,269.9076,90.1735,0.00013557,1.525e-05,0.0,0 STARLINK-6341,1 56786U 23078V   24161.87495315  .00001525  00000-0  13557-3 0  9995,2 56786  69.9991 132.6695 0003041 269.9076  90.1735 14.98323115 57897,6950.214,96.107,574.193,569.966,0.0
56786.0,STARLINK-6341,PAYLOAD,2024-06-09 22:36:03,14.98331552,0.0002973,69.9991,132.5011,270.8675,89.2144,-6.8751e-07,-1.01e-06,0.0,0 STARLINK-6341,1 56786U 23078V   24161.94171191 -.00000101  00000-0 -68751-6 0  9996,2 56786  69.9991 132.5011 0002973 270.8675  89.2144 14.98331552 57647,6950.188,96.107,574.119,569.987,0.0
56786.0,STARLINK-6341,PAYLOAD,2024-06-10 08:12:52,14.9833406,0.0003038,69.9992,131.4914,271.3489,88.7322,-8.2033e-06,-1.91e-06,0.0,0 STARLINK-6341,1 56786U 23078V   24162.34227003 -.00000191  00000-0 -82033-5 0  9992,2 56786  69.9992 131.4914 0003038 271.3489  88.7322 14.98334060 57964,6950.18,96.107,574.157,569.934,0.0
56786.0,STARLINK-6341,PAYLOAD,2024-06-10 14:37:24,14.98331822,0.0002993,69.9994,130.8182,272.0739,88.0078,-5.5793e-06,-1.6e-06,0.0,0 STARLINK-6341,1 56786U 23078V   24162.60931107 -.00000160  00000-0 -55793-5 0  9997,2 56786  69.9994 130.8182 0002993 272.0739  88.0078 14.98331822 57741,6950.187,96.107,574.132,569.972,0.0
56786.0,STARLINK-6341,PAYLOAD,2024-06-10 22:38:04,14.98327506,0.000308,69.9992,129.9767,270.8684,89.2122,3.7587e-05,3.55e-06,0.0,0 STARLINK-6341,1 56786U 23078V   24162.94311236  .00000355  00000-0  37587-4 0  9993,2 56786  69.9992 129.9767 0003080 270.8684  89.2122 14.98327506 57792,6950.201,96.107,574.206,569.925,0.0
56786.0,STARLINK-6341,PAYLOAD,2024-06-11 08:14:52,14.98331868,0.000301,69.9994,128.9672,269.5588,90.5226,7.83e-05,8.41e-06,0.0,0 STARLINK-6341,1 56786U 23078V   24163.34366852  .00000841  00000-0  78300-4 0  9990,2 56786  69.9994 128.9672 0003010 269.5588  90.5226 14.98331868 57852,6950.187,96.107,574.144,569.96,0.0
56786.0,STARLINK-6341,PAYLOAD,2024-06-12 03:28:30,14.98324873,0.0002897,69.9997,126.9477,269.2633,90.8194,-5.2974e-05,-7.25e-06,0.0,0 STARLINK-6341,1 56786U 23078V   24164.14479757 -.00000725  00000-0 -52974-4 0  9990,2 56786  69.9997 126.9477 0002897 269.2633  90.8194 14.98324873 58234,6950.209,96.107,574.087,570.06,0.0
56786.0,STARLINK-6341,PAYLOAD,2024-06-12 06:40:46,14.98326828,0.0002876,69.9997,126.6111,269.3076,90.7753,-2.9941e-05,-4.5e-06,0.0,0 STARLINK-6341,1 56786U 23078V   24164.27831593 -.00000450  00000-0 -29941-4 0  9997,2 56786  69.9997 126.6111 0002876 269.3076  90.7753 14.98326828 57999,6950.203,96.107,574.067,570.069,0.0
56786.0,STARLINK-6341,PAYLOAD,2024-06-12 22:42:06,14.98339081,0.0002878,69.9997,124.9289,261.4723,98.611,6.6059e-05,6.95e-06,0.0,0 STARLINK-6341,1 56786U 23078V   24164.94590377  .00000695  00000-0  66059-4 0  9993,2 56786  69.9997 124.9289 0002878 261.4723  98.6110 14.98339081 58091,6950.165,96.106,574.03,570.03,0.0
56786.0,STARLINK-6341,PAYLOAD,2024-06-13 03:30:29,14.9834537,0.0002779,69.9998,124.4235,260.9092,99.1753,0.00014577,1.647e-05,0.0,0 STARLINK-6341,1 56786U 23078V   24165.14617632  .00001647  00000-0  14577-3 0  9995,2 56786  69.9998 124.4235 0002779 260.9092  99.1753 14.98345370 58380,6950.145,96.106,573.942,570.079,0.0
56786.0,STARLINK-6341,PAYLOAD,2024-06-13 06:42:45,14.9835232,0.0002619,69.9999,124.0857,265.4177,94.6683,0.00023581,2.723e-05,0.0,0 STARLINK-6341,1 56786U 23078V   24165.27968821  .00002723  00000-0  23581-3 0  9999,2 56786  69.9999 124.0857 0002619 265.4177  94.6683 14.98352320 58402,6950.124,96.106,573.809,570.169,0.0
56786.0,STARLINK-6341,PAYLOAD,2024-06-13 22:44:08,14.98319596,0.0003111,69.9982,122.401,273.66,86.4203,-0.00012748,-1.613e-05,0.0,0 STARLINK-6341,1 56786U 23078V   24165.94731555 -.00001613  00000-0 -12748-3 0  9997,2 56786  69.9982 122.4010 0003111 273.6600  86.4203 14.98319596 58244,6950.225,96.108,574.252,569.928,0.0
56786.0,STARLINK-6341,PAYLOAD,2024-06-14 14:45:28,14.98328633,0.0002966,69.9994,120.7189,277.8673,82.215,-8.0569e-05,-1.054e-05,0.0,0 STARLINK-6341,1 56786U 23078V   24166.61491141 -.00001054  00000-0 -80569-4 0  9992,2 56786  69.9994 120.7189 0002966 277.8673  82.2150 14.98328633 58346,6950.197,96.107,574.124,570.001,0.0
56786.0,STARLINK-6341,PAYLOAD,2024-06-14 22:46:08,14.98340909,0.000283,69.9994,119.8771,272.5204,87.5631,-0.00018763,-2.332e-05,0.0,0 STARLINK-6341,1 56786U 23078V   24166.94870685 -.00002332  00000-0 -18763-3 0  9998,2 56786  69.9994 119.8771 0002830 272.5204  87.5631 14.98340909 58391,6950.159,96.106,573.991,570.057,0.0
